From: horizons@ssd.jpl.nasa.gov (Horizons Ephemeris System)
Subject: [Horizons] SMALL BODY #C(500@10)_T(55P/Tempel-Tuttle) (1/1)
Date: March 1, 2021 at 10:54:01 AM PST

Automated mail xmit by MAIL_REQUEST, PID= 31441 Mon Mar  1 10:54:01 2021
++++++++++++++++++++++++++++++++ (part 1 of 1)  +++++++++++++++++++++++++++++++


*******************************************************************************
Ephemeris / MAIL_REQUEST Mon Mar  1 10:54:01 2021 Pasadena, USA  / Horizons
*******************************************************************************
Target body name: 55P/Tempel-Tuttle               {source: JPL#J985/69}
Center body name: Sun (10)                        {source: DE406}
Center-site name: BODY CENTER
*******************************************************************************
Start time      : A.D. 1995-Mar-20 07:55:12.0000 TDB
Stop  time      : A.D. 2001-Mar-20 07:55:12.0000 TDB
Step-size       : 20160 minutes
*******************************************************************************
Center geodetic : 0.00000000,0.00000000,0.0000000 {E-lon(deg),Lat(deg),Alt(km)}
Center cylindric: 0.00000000,0.00000000,0.0000000 {E-lon(deg),Dxy(km),Dz(km)}
Center radii    : 696000.0 x 696000.0 x 696000.0 k{Equator, meridian, pole}    
Small perturbers: Yes                             {source: SB406-CPV-2}
Output units    : AU-D
Output type     : GEOMETRIC cartesian states
Output format   : 3 (position, velocity, LT, range, range-rate)
Reference frame : Ecliptic of J2000.0
*******************************************************************************
Initial IAU76/J2000 heliocentric ecliptic osculating elements (au, days, deg.):
 EPOCH=  2451040.5 ! 1998-Aug-15.0000000 (TDB)    RMSW= n.a.                  
  EC= .9055527209724122   QR= .9764279154675056   TP= 2450872.5977341123      
  OM= 235.270989149082    W= 172.5002736828059    IN= 162.4865753794343       
 Equivalent ICRF heliocentric equatorial cartesian coordinates (au, au/d):
  X= 1.722008948564452E+00  Y=-1.306804387069443E+00  Z=-1.397143536386168E+00
 VX= 8.841891235384890E-04 VY=-1.166410808786355E-02 VZ=-8.029643799453659E-03
Comet physical (GM= km^3/s^2; RAD= km):                                        
  GM= n.a.                RAD= 1.8                                            
  M1=  10.      M2=  16.      k1=  25.    k2=  10.     PHCOF= n.a.            
Comet non-gravitational force model (AMRAT=m^2/kg;A1-A3=au/d^2;DT=days;R0=au): 
  AMRAT=  0.                                      DT=  0.                     
  A1= 1.580981463194E-9   A2= 9.186415933073E-11  A3= 0.                      
Standard model:                                                               
  ALN=  .1112620426   NK=  4.6142   NM=  2.15     NN=  5.093    R0=  2.808    
*******************************************************************************
           JDTDB,            Calendar Date (TDB),                      X,                      Y,                      Z,                     VX,                     VY,                     VZ,                     LT,                     RG,                     RR,
**************************************************************************************************************************************************************************************************************************************************************************
$$SOE
2451812.830000000, A.D. 2000-Sep-25 07:55:12.0000,  2.624064463966456E-01, -8.363111918444435E+00, -1.571449840708435E+00, -2.494746256102735E-03, -5.874012915798347E-03, -4.091349090784851E-04,  4.916996704948055E-02,  8.513515883898993E+00,  5.768865129630947E-03,
2451826.830000000, A.D. 2000-Oct-09 07:55:12.0000,  2.274677084944793E-01, -8.444958195592632E+00, -1.577104438175579E+00, -2.496456916132280E-03, -5.818484423496580E-03, -3.987074139580813E-04,  4.963463077846248E-02,  8.593969914575451E+00,  5.724688136586864E-03,
2451840.830000000, A.D. 2000-Oct-23 07:55:12.0000,  1.925068806359627E-01, -8.526034228510030E+00, -1.582614820191883E+00, -2.497904368046461E-03, -5.763973173574785E-03, -3.885310733401759E-04,  5.009575142462350E-02,  8.673810479478313E+00,  5.681224410361993E-03,
2451854.830000000, A.D. 2000-Nov-06 07:55:12.0000,  1.575275635353814E-01, -8.606354068020758E+00, -1.587984437875574E+00, -2.499098874438889E-03, -5.710452444766360E-03, -3.785968509667959E-04,  5.055338606318539E-02,  8.753047460875889E+00,  5.638459610746241E-03,
2451868.830000000, A.D. 2000-Nov-20 07:55:12.0000,  1.225332860750146E-01, -8.685931354726717E+00, -1.593216621719644E+00, -2.500042954080226E-03, -5.657886880226239E-03, -3.688960376376700E-04,  5.100759038417633E-02,  8.831690501197651E+00,  5.596370238303780E-03,
2451882.830000000, A.D. 2000-Dec-04 07:55:12.0000,  8.752745297873209E-02, -8.764779185973746E+00, -1.598314570501118E+00, -2.500752508596046E-03, -5.606239957145788E-03, -3.594189327917318E-04,  5.145841785074699E-02,  8.909748857301182E+00,  5.554930458785669E-03,
2451896.830000000, A.D. 2000-Dec-18 07:55:12.0000,  5.251325498354696E-02, -8.842910238897524E+00, -1.603281357797603E+00, -2.501239314273782E-03, -5.555485502747101E-03, -3.501573999444279E-04,  5.190592034237712E-02,  8.987231511839950E+00,  5.514124364409951E-03,
2451910.830000000, A.D. 2001-Jan-01 07:55:12.0000,  1.749375502232592E-02, -8.920336814782983E+00, -1.608119948304493E+00, -2.501511254539426E-03, -5.505595624483531E-03, -3.411038616201163E-04,  5.235014838113763E-02,  9.064147212439361E+00,  5.473933870749452E-03,
2451924.830000000, A.D. 2001-Jan-15 07:55:12.0000, -1.752809689666370E-02, -8.997070819217218E+00, -1.612833202335389E+00, -2.501576842955847E-03, -5.456542190051691E-03, -3.322509983391009E-04,  5.279115097424292E-02,  9.140504444435559E+00,  5.434340099808047E-03,
2451938.830000000, A.D. 2001-Jan-29 07:55:12.0000, -5.254947186870148E-02, -9.073123781867039E+00, -1.617423881263701E+00, -2.501443967124361E-03, -5.408300190150948E-03, -3.235921192299350E-04,  5.322897568576380E-02,  9.216311443292106E+00,  5.395326813932557E-03,
2451952.830000000, A.D. 2001-Feb-12 07:55:12.0000, -8.756760036588603E-02, -9.148506881906886E+00, -1.621894659467957E+00, -2.501113135531985E-03, -5.360841176276896E-03, -3.151212115673832E-04,  5.366366874829071E-02,  9.291576213933899E+00,  5.356873918225541E-03,
2451966.830000000, A.D. 2001-Feb-26 07:55:12.0000, -1.225797748304177E-01, -9.223230813485811E+00, -1.626248116725975E+00, -2.500596819854472E-03, -5.314128451948156E-03, -3.068307244226784E-04,  5.409527424567771E-02,  9.366306389243649E+00,  5.318952498170237E-03,
2451980.830000000, A.D. 2001-Mar-12 07:55:12.0000, -1.575835220159730E-01, -9.297305854823138E+00, -1.630486730917842E+00, -2.499911260530768E-03, -5.268139107710086E-03, -2.987140637723304E-04,  5.452383447440728E-02,  9.440509292630283E+00,  5.281547124532825E-03,
